0 COSMOS 1716
1 16449U 86002A   13282.09933461 -.00000012  00000-0  23994-4 0  8401
2 16449 073.9901 057.6252 0017660 194.1027 289.1816 12.46854010263193
0 COSMOS 1716
1 16449U 86002A   13284.17229610 -.00000029  00000-0 -91569-4 0  8419
2 16449 073.9906 054.8797 0017624 191.0699 233.9745 12.46854281263459
0 COSMOS 1716
1 16449U 86002A   13286.17846123 -.00000039  00000-0 -15545-3 0  8426
2 16449 073.9912 052.2229 0017575 188.1356 238.9431 12.46854287263701
0 COSMOS 1716
1 16449U 86002A   13288.50597896 -.00000014  00000-0  16131-4 0  8431
2 16449 073.9917 049.1406 0017536 184.7137 246.3692 12.46854099263998
0 COSMOS 1716
1 16449U 86002A   13290.51880025  .00000003  00000-0  12959-3 0  8445
2 16449 073.9918 046.4752 0017500 181.7319 281.2527 12.46853850264241
0 COSMOS 1716
1 16449U 86002A   13292.52031587  .00000014  00000-0  20181-3 0  8458
2 16449 073.9918 043.8248 0017461 178.7590 265.3950 12.46853917264499
0 COSMOS 1716
1 16449U 86002A   13294.77331285 -.00000012  00000-0  24037-4 0  8460
2 16449 073.9919 040.8413 0017403 175.4261 298.3392 12.46854059264771
